STARLINK-37998          
1 69679U 26145C   26187.75003471 -.00169561  00000+0 -11562-2 0  9992
2 69679  97.2849  34.1797 0001317  85.6683  65.9335 15.75237775  3077
STARLINK-37994          
1 69680U 26145D   26187.75003471 -.00093767  00000+0 -63390-3 0  9995
2 69680  97.2853  34.1770 0001315  85.4553  58.1520 15.75218950  3071
STARLINK-37992          
1 69681U 26145E   26187.75003471 -.00162140  00000+0 -11070-2 0  9995
2 69681  97.2850  34.1778 0001559  88.2610  57.3516 15.75186868  3070
STARLINK-37997          
1 69682U 26145F   26187.75003471 -.00103530  00000+0 -70070-3 0  9990
2 69682  97.2851  34.1797 0001475 109.7147  39.8913 15.75221434  3079
STARLINK-37990          
1 69683U 26145G   26187.75003471 -.00214930  00000+0 -14715-2 0  9991
2 69683  97.2850  34.1779 0001353  99.3057  48.2903 15.75268881  3078
STARLINK-37951          
1 69684U 26145H   26187.75003471 -.00095174  00000+0 -64334-3 0  9992
2 69684  97.2849  34.1810 0001528 104.2588  49.3440 15.75225142  3073
STARLINK-37957          
1 69685U 26145J   26187.75003471 -.00102872  00000+0 -69618-3 0  9997
2 69685  97.2847  34.1836 0001438 103.2843  56.3175 15.75221792  3073
STARLINK-37968          
1 69686U 26145K   26187.75003471 -.00086784  00000+0 -58602-3 0  9992
2 69686  97.2851  34.1989 0001442 114.3971  79.1979 15.75223765  3075
STARLINK-37977          
1 69687U 26145L   26187.75003471 -.00083145  00000+0 -56135-3 0  9990
2 69687  97.2855  34.1999 0001307 130.8083  66.7926 15.75216622  3076
STARLINK-37908          
1 69688U 26145M   26187.75003471 -.00087461  00000+0 -59073-3 0  9990
2 69688  97.2854  34.2059 0000641  84.3001 125.2982 15.75222176  3071
STARLINK-37979          
1 69689U 26145N   26187.75003471 -.00192450  00000+0 -13153-2 0  9994
2 69689  97.2851  34.2053 0001464  88.9863 122.6073 15.75247801  3077
STARLINK-37940          
1 69690U 26145P   26187.75003471 -.00097535  00000+0 -65955-3 0  9992
2 69690  97.2854  34.2089 0002116 114.7841 102.8126 15.75221442  3072
STARLINK-37961          
1 69691U 26145Q   26187.75003471 -.00175178  00000+0 -11946-2 0  9993
2 69691  97.2851  34.2167 0001290 100.4571 135.1273 15.75251403  3073
STARLINK-37787          
1 69692U 26145R   26187.75003471 -.00048489  00000+0 -32597-3 0  9994
2 69692  97.2853  34.2218 0001314  62.7290 184.8653 15.75196456  3077
STARLINK-37962          
1 69693U 26145S   26187.75003471 -.00087010  00000+0 -58778-3 0  9997
2 69693  97.2852  34.2265 0001445  94.2950 163.2951 15.75215041  3071
STARLINK-37953          
1 69694U 26145T   26187.75003471 -.00090364  00000+0 -61025-3 0  9993
2 69694  97.2854  34.2190 0001303  97.8773 143.7099 15.75232978  3070
STARLINK-37926          
1 69695U 26145U   26187.75003471 -.00151098  00000+0 -10281-2 0  9993
2 69695  97.2852  34.2218 0001591 125.9002 119.6887 15.75234765  3070
STARLINK-37959          
1 69696U 26145V   26187.75003471 -.00041486  00000+0 -27848-3 0  9991
2 69696  97.2852  34.2234 0001121 108.0494 143.5391 15.75201622  3077
STARLINK-37976          
1 69697U 26145W   26187.75003471 -.00068174  00000+0 -45966-3 0  9996
2 69697  97.2853  34.2307 0001139  80.2107 187.3819 15.75199826  3074
STARLINK-37912          
1 69698U 26145X   26187.75003471 -.00196352  00000+0 -13447-2 0  9995
2 69698  97.2854  34.2337 0001138  70.8902 202.8253 15.75212644  3075
STARLINK-37974          
1 69699U 26145Y   26187.75003471 -.00073116  00000+0 -49330-3 0  9999
2 69699  97.2855  34.2348 0001307  77.3868 200.2061 15.75200870  3077
STARLINK-37955          
1 69700U 26145Z   26187.75003471 -.00052704  00000+0 -35456-3 0  9996
2 69700  97.2859  34.2415 0000930  82.1794 209.4117 15.75197196  3071
STRIX-8                 
1 69701U 26146A   26187.78724830  .00003786  00000+0  27987-3 0  9994
2 69701  41.9896  59.6678 0008549 328.2246  31.8064 15.04385450  1510
STARLINK-38055          
1 69704U 26147A   26187.75003471 -.00136685  00000+0 -72200-3 0  9991
2 69704  97.2835 223.6464 0001293  96.3988 262.9891 15.80878000  2384
STARLINK-37898          
1 69705U 26147B   26187.75003471 -.00007109  00000+0 -36381-4 0  9991
2 69705  97.2838 223.6501 0001024  99.9515 264.1293 15.80828716  2386
STARLINK-37970          
1 69706U 26147C   26187.75003471 -.00035556  00000+0 -18543-3 0  9998
2 69706  97.2838 223.6518 0001457  96.8600 271.4923 15.80839970  2381
STARLINK-37975          
1 69707U 26147D   26187.75003471 -.00149421  00000+0 -78988-3 0  9995
2 69707  97.2837 223.6527 0000922  98.6297 273.9782 15.80895942  2380
STARLINK-37972          
1 69708U 26147E   26187.75003471 -.00006663  00000+0 -34038-4 0  9995
2 69708  97.2840 223.6549 0000605  81.3598 295.5375 15.80837442  2389
